{"type": "FeatureCollection", "features": [ {"type": "Feature", "properties": {"norad_id": 60989, "name": "SENTINEL-2C", "group": "resource", "lat": 72.82259568188229, "lon": -85.4343087243585, "alt_km": 781.111101262064, "timestamp": "2025-12-18T23:35:48.705150+00:00", "meta": {"OBJECT_NAME": "SENTINEL-2C", "OBJECT_ID": "2024-157A", "EPOCH": "2025-12-18T11:21:36.537120", "MEAN_MOTION": 14.3081982, "ECCENTRICITY": 0.00012271, "INCLINATION": 98.5679, "RA_OF_ASC_NODE": 64.8733, "ARG_OF_PERICENTER": 96.3823, "MEAN_ANOMALY": 263.75, "EPHEMERIS_TYPE": 0, "CLASSIFICATION_TYPE": "U", "NORAD_CAT_ID": 60989, "ELEMENT_SET_NO": 999, "REV_AT_EPOCH": 6714, "BSTAR": 6.3462123e-05, "MEAN_MOTION_DOT": 1.23e-06, "MEAN_MOTION_DDOT": 0}, "tle": {"line1": "1 60989U 24157A   25352.47333955  .00000123  00000+0  63462-4 0  9997", "line2": "2 60989  98.5679  64.8733 0001227  96.3823 263.7500 14.30819820 67149"}}, "geometry": {"type": "Point", "coordinates": [-85.4343087243585, 72.82259568188229]}}, {"type": "Feature", "properties": {"norad_id": 61735, "name": "IONOSFERA-M 1", "group": "resource", "lat": -9.470555950989151, "lon": 41.31277213783061, "alt_km": 820.7344083128719, "timestamp": "2025-12-18T23:35:48.705160+00:00", "meta": {"OBJECT_NAME": "IONOSFERA-M 1", "OBJECT_ID": "2024-199A", "EPOCH": "2025-12-18T14:16:11.191008", "MEAN_MOTION": 14.22715312, "ECCENTRICITY": 6.74e-05, "INCLINATION": 98.7401, "RA_OF_ASC_NODE": 222.3978, "ARG_OF_PERICENTER": 12.7094, "MEAN_ANOMALY": 347.4101, "EPHEMERIS_TYPE": 0, "CLASSIFICATION_TYPE": "U", "NORAD_CAT_ID": 61735, "ELEMENT_SET_NO": 999, "REV_AT_EPOCH": 10202, "BSTAR": 4.3010924e-05, "MEAN_MOTION_DOT": 5.2e-07, "MEAN_MOTION_DDOT": 0}, "tle": {"line1": "1 61735U 24199A   25352.59457397  .00000052  00000+0  43011-4 0  9992", "line2": "2 61735  98.7401 222.3978 0000674  12.7094 347.4101 14.22715312102029"}}, "geometry": {"type": "Point", "coordinates": [41.31277213783061, -9.470555950989151]}}, {"type": "Feature", "properties": {"norad_id": 61736, "name": "IONOSFERA-M 2", "group": "resource", "lat": 11.901737409595789, "lon": -139.16251987408066, "alt_km": 817.4205327648533, "timestamp": "2025-12-18T23:35:48.705171+00:00", "meta": {"OBJECT_NAME": "IONOSFERA-M 2", "OBJECT_ID": "2024-199B", "EPOCH": "2025-12-18T15:06:03.926304", "MEAN_MOTION": 14.22717491, "ECCENTRICITY": 0.00017693, "INCLINATION": 98.7406, "RA_OF_ASC_NODE": 222.3445, "ARG_OF_PERICENTER": 103.1583, "MEAN_ANOMALY": 256.9793, "EPHEMERIS_TYPE": 0, "CLASSIFICATION_TYPE": "U", "NORAD_CAT_ID": 61736, "ELEMENT_SET_NO": 999, "REV_AT_EPOCH": 10515, "BSTAR": 4.0927175e-05, "MEAN_MOTION_DOT": 4.7e-07, "MEAN_MOTION_DDOT": 0}, "tle": {"line1": "1 61736U 24199B   25352.62921211  .00000047  00000+0  40927-4 0  9995", "line2": "2 61736  98.7406 222.3445 0001769 103.1583 256.9793 14.22717491105156"}}, "geometry": {"type": "Point", "coordinates": [-139.16251987408066, 11.901737409595789]}}, {"type": "Feature", "properties": {"norad_id": 63772, "name": "BIOMASS", "group": "resource", "lat": 49.14288520926663, "lon": 7.3432572286337106, "alt_km": 664.0532134442483, "timestamp": "2025-12-18T23:35:48.705181+00:00", "meta": {"OBJECT_NAME": "BIOMASS", "OBJECT_ID": "2025-090A", "EPOCH": "2025-12-18T11:33:05.101920", "MEAN_MOTION": 14.67533193, "ECCENTRICITY": 0.00010843, "INCLINATION": 98.07, "RA_OF_ASC_NODE": 177.4074, "ARG_OF_PERICENTER": 78.1914, "MEAN_ANOMALY": 281.9412, "EPHEMERIS_TYPE": 0, "CLASSIFICATION_TYPE": "U", "NORAD_CAT_ID": 63772, "ELEMENT_SET_NO": 999, "REV_AT_EPOCH": 3418, "BSTAR": 0.00016087082, "MEAN_MOTION_DOT": 8.64e-06, "MEAN_MOTION_DDOT": 0}, "tle": {"line1": "1 63772U 25090A   25352.48130905  .00000864  00000+0  16087-3 0  9990", "line2": "2 63772  98.0700 177.4074 0001084  78.1914 281.9412 14.67533193 34189"}}, "geometry": {"type": "Point", "coordinates": [7.3432572286337106, 49.14288520926663]}}, {"type": "Feature", "properties": {"norad_id": 64694, "name": "GOSAT-GW (IBUKI GW)", "group": "resource", "lat": -19.753229342428508, "lon": -68.70625377886759, "alt_km": 674.2389771963117, "timestamp": "2025-12-18T23:35:48.705191+00:00", "meta": {"OBJECT_NAME": "GOSAT-GW (IBUKI GW)", "OBJECT_ID": "2025-141A", "EPOCH": "2025-12-18T13:52:10.293888", "MEAN_MOTION": 14.6756349, "ECCENTRICITY": 0.00014271, "INCLINATION": 98.0434, "RA_OF_ASC_NODE": 287.9851, "ARG_OF_PERICENTER": 83.5345, "MEAN_ANOMALY": 276.6023, "EPHEMERIS_TYPE": 0, "CLASSIFICATION_TYPE": "U", "NORAD_CAT_ID": 64694, "ELEMENT_SET_NO": 999, "REV_AT_EPOCH": 2535, "BSTAR": 0.00010329883, "MEAN_MOTION_DOT": 5.38e-06, "MEAN_MOTION_DDOT": 0}, "tle": {"line1": "1 64694U 25141A   25352.57789692  .00000538  00000+0  10330-3 0  9997", "line2": "2 64694  98.0434 287.9851 0001427  83.5345 276.6023 14.67563490 25357"}}, "geometry": {"type": "Point", "coordinates": [-68.70625377886759, -19.753229342428508]}}, {"type": "Feature", "properties": {"norad_id": 64876, "name": "IONOSFERA-M 3", "group": "resource", "lat": 27.282002445870052, "lon": -49.7925891204711, "alt_km": 817.9399858844317, "timestamp": "2025-12-18T23:35:48.705201+00:00", "meta": {"OBJECT_NAME": "IONOSFERA-M 3", "OBJECT_ID": "2025-155A", "EPOCH": "2025-12-18T15:01:13.727712", "MEAN_MOTION": 14.21442394, "ECCENTRICITY": 0.00020759, "INCLINATION": 98.5791, "RA_OF_ASC_NODE": 314.3255, "ARG_OF_PERICENTER": 50.4061, "MEAN_ANOMALY": 309.73, "EPHEMERIS_TYPE": 0, "CLASSIFICATION_TYPE": "U", "NORAD_CAT_ID": 64876, "ELEMENT_SET_NO": 999, "REV_AT_EPOCH": 2075, "BSTAR": 3.793852e-05, "MEAN_MOTION_DOT": 4e-07, "MEAN_MOTION_DDOT": 0}, "tle": {"line1": "1 64876U 25155A   25352.62585333  .00000040  00000+0  37939-4 0  9999", "line2": "2 64876  98.5791 314.3255 0002075  50.4061 309.7300 14.21442394 20755"}}, "geometry": {"type": "Point", "coordinates": [-49.7925891204711, 27.282002445870052]}}, {"type": "Feature", "properties": {"norad_id": 64877, "name": "IONOSFERA-M 4", "group": "resource", "lat": -28.176011622317397, "lon": 129.95424038940212, "alt_km": 827.176512496364, "timestamp": "2025-12-18T23:35:48.705211+00:00", "meta": {"OBJECT_NAME": "IONOSFERA-M 4", "OBJECT_ID": "2025-155B", "EPOCH": "2025-12-18T14:10:21.271872", "MEAN_MOTION": 14.21443632, "ECCENTRICITY": 0.00014645, "INCLINATION": 98.5789, "RA_OF_ASC_NODE": 314.2107, "ARG_OF_PERICENTER": 57.7422, "MEAN_ANOMALY": 302.3898, "EPHEMERIS_TYPE": 0, "CLASSIFICATION_TYPE": "U", "NORAD_CAT_ID": 64877, "ELEMENT_SET_NO": 999, "REV_AT_EPOCH": 2074, "BSTAR": 4.38385e-05, "MEAN_MOTION_DOT": 5.3e-07, "MEAN_MOTION_DDOT": 0}, "tle": {"line1": "1 64877U 25155B   25352.59052398  .00000053  00000+0  43838-4 0  9995", "line2": "2 64877  98.5789 314.2107 0001464  57.7422 302.3898 14.21443632 20746"}}, "geometry": {"type": "Point", "coordinates": [129.95424038940212, -28.176011622317397]}}, {"type": "Feature", "properties": {"norad_id": 64899, "name": "MICROCARB", "group": "resource", "lat": 57.73289228277262, "lon": 55.3547130766679, "alt_km": 644.1393787282022, "timestamp": "2025-12-18T23:35:48.705222+00:00", "meta": {"OBJECT_NAME": "MICROCARB", "OBJECT_ID": "2025-156A", "EPOCH": "2025-12-18T15:10:28.560864", "MEAN_MOTION": 14.72066432, "ECCENTRICITY": 0.00174552, "INCLINATION": 98.002, "RA_OF_ASC_NODE": 67.8831, "ARG_OF_PERICENTER": 126.9719, "MEAN_ANOMALY": 233.309, "EPHEMERIS_TYPE": 0, "CLASSIFICATION_TYPE": "U", "NORAD_CAT_ID": 64899, "ELEMENT_SET_NO": 999, "REV_AT_EPOCH": 2140, "BSTAR": 9.4005022e-05, "MEAN_MOTION_DOT": 5.42e-06, "MEAN_MOTION_DDOT": 0}, "tle": {"line1": "1 64899U 25156A   25352.63227501  .00000542  00000+0  94005-4 0  9990", "line2": "2 64899  98.0020  67.8831 0017455 126.9719 233.3090 14.72066432 21409"}}, "geometry": {"type": "Point", "coordinates": [55.3547130766679, 57.73289228277262]}}, {"type": "Feature", "properties": {"norad_id": 64900, "name": "CO3D 3", "group": "resource", "lat": 77.08486160621803, "lon": -76.02601855867194, "alt_km": 497.05121776106444, "timestamp": "2025-12-18T23:35:48.705232+00:00", "meta": {"OBJECT_NAME": "CO3D 3", "OBJECT_ID": "2025-156B", "EPOCH": "2025-12-18T13:40:40.079712", "MEAN_MOTION": 15.20213666, "ECCENTRICITY": 0.00013682, "INCLINATION": 97.4346, "RA_OF_ASC_NODE": 68.8539, "ARG_OF_PERICENTER": 83.9079, "MEAN_ANOMALY": 276.2312, "EPHEMERIS_TYPE": 0, "CLASSIFICATION_TYPE": "U", "NORAD_CAT_ID": 64900, "ELEMENT_SET_NO": 999, "REV_AT_EPOCH": 2209, "BSTAR": 0.00021447316, "MEAN_MOTION_DOT": 4.58e-05, "MEAN_MOTION_DDOT": 0}, "tle": {"line1": "1 64900U 25156B   25352.56990833  .00004580  00000+0  21447-3 0  9995", "line2": "2 64900  97.4346  68.8539 0001368  83.9079 276.2312 15.20213666 22095"}}, "geometry": {"type": "Point", "coordinates": [-76.02601855867194, 77.08486160621803]}}, {"type": "Feature", "properties": {"norad_id": 64901, "name": "CO3D 4", "group": "resource", "lat": 77.81626471938222, "lon": -73.52436218876484, "alt_km": 497.6721737744483, "timestamp": "2025-12-18T23:35:48.705242+00:00", "meta": {"OBJECT_NAME": "CO3D 4", "OBJECT_ID": "2025-156C", "EPOCH": "2025-12-18T15:15:41.136192", "MEAN_MOTION": 15.20223028, "ECCENTRICITY": 0.00012422, "INCLINATION": 97.4346, "RA_OF_ASC_NODE": 68.9189, "ARG_OF_PERICENTER": 176.7316, "MEAN_ANOMALY": 183.3927, "EPHEMERIS_TYPE": 0, "CLASSIFICATION_TYPE": "U", "NORAD_CAT_ID": 64901, "ELEMENT_SET_NO": 999, "REV_AT_EPOCH": 2210, "BSTAR": 0.00024830765, "MEAN_MOTION_DOT": 5.315e-05, "MEAN_MOTION_DDOT": 0}, "tle": {"line1": "1 64901U 25156C   25352.63589278  .00005315  00000+0  24831-3 0  9998", "line2": "2 64901  97.4346  68.9189 0001242 176.7316 183.3927 15.20223028 22109"}}, "geometry": {"type": "Point", "coordinates": [-73.52436218876484, 77.81626471938222]}}]}